[{"CCSDS_OMM_VERS":"2.0","COMMENT":"GENERATED VIA SPACE-TRACK.ORG API","CREATION_DATE":"2022-12-08T18:21:51","ORIGINATOR":"18 SPCS","OBJECT_NAME":"SL-12 R\/B(2)","OBJECT_ID":"1984-016F","CENTER_NAME":"EARTH","REF_FRAME":"TEME","TIME_SYSTEM":"UTC","MEAN_ELEMENT_THEORY":"SGP4","EPOCH":"2022-12-08T13:49:46.346304","MEAN_MOTION":"1.00248915","ECCENTRICITY":"0.00381290","INCLINATION":"11.0647","RA_OF_ASC_NODE":"320.5757","ARG_OF_PERICENTER":"191.0049","MEAN_ANOMALY":"230.3880","EPHEMERIS_TYPE":"0","CLASSIFICATION_TYPE":"U","NORAD_CAT_ID":"17874","ELEMENT_SET_NO":"999","REV_AT_EPOCH":"10995","BSTAR":"0.00000000000000","MEAN_MOTION_DOT":"-0.00000277","MEAN_MOTION_DDOT":"0.0000000000000","SEMIMAJOR_AXIS":"42171.144","PERIOD":"1436.425","APOAPSIS":"35953.804","PERIAPSIS":"35632.215","OBJECT_TYPE":"ROCKET BODY","RCS_SIZE":"LARGE","COUNTRY_CODE":"CIS","LAUNCH_DATE":"1984-02-15","SITE":"TTMTR","DECAY_DATE":null,"FILE":"3684614","GP_ID":"219757203","TLE_LINE0":"0 SL-12 R\/B(2)","TLE_LINE1":"1 17874U 84016F   22342.57623086 -.00000277  00000-0  00000-0 0  9993","TLE_LINE2":"2 17874  11.0647 320.5757 0038129 191.0049 230.3880  1.00248915109952"},{"CCSDS_OMM_VERS":"2.0","COMMENT":"GENERATED VIA SPACE-TRACK.ORG API","CREATION_DATE":"2022-12-08T18:21:51","ORIGINATOR":"18 SPCS","OBJECT_NAME":"SL-12 R\/B(2)","OBJECT_ID":"1979-035E","CENTER_NAME":"EARTH","REF_FRAME":"TEME","TIME_SYSTEM":"UTC","MEAN_ELEMENT_THEORY":"SGP4","EPOCH":"2022-12-08T08:24:27.140832","MEAN_MOTION":"1.00193598","ECCENTRICITY":"0.00296910","INCLINATION":"8.4235","RA_OF_ASC_NODE":"296.8780","ARG_OF_PERICENTER":"210.9963","MEAN_ANOMALY":"200.7904","EPHEMERIS_TYPE":"0","CLASSIFICATION_TYPE":"U","NORAD_CAT_ID":"17873","ELEMENT_SET_NO":"999","REV_AT_EPOCH":"17228","BSTAR":"0.00000000000000","MEAN_MOTION_DOT":"-0.00000236","MEAN_MOTION_DDOT":"0.0000000000000","SEMIMAJOR_AXIS":"42186.665","PERIOD":"1437.218","APOAPSIS":"35933.786","PERIAPSIS":"35683.273","OBJECT_TYPE":"ROCKET BODY","RCS_SIZE":"LARGE","COUNTRY_CODE":"CIS","LAUNCH_DATE":"1979-04-25","SITE":"TTMTR","DECAY_DATE":null,"FILE":"3684614","GP_ID":"219758446","TLE_LINE0":"0 SL-12 R\/B(2)","TLE_LINE1":"1 17873U 79035E   22342.35031413 -.00000236  00000-0  00000-0 0  9995","TLE_LINE2":"2 17873   8.4235 296.8780 0029691 210.9963 200.7904  1.00193598172285"},{"CCSDS_OMM_VERS":"2.0","COMMENT":"GENERATED VIA SPACE-TRACK.ORG API","CREATION_DATE":"2022-12-08T18:21:51","ORIGINATOR":"18 SPCS","OBJECT_NAME":"SL-12 R\/B(2)","OBJECT_ID":"1976-092F","CENTER_NAME":"EARTH","REF_FRAME":"TEME","TIME_SYSTEM":"UTC","MEAN_ELEMENT_THEORY":"SGP4","EPOCH":"2022-12-08T13:32:35.608992","MEAN_MOTION":"1.00312371","ECCENTRICITY":"0.00183790","INCLINATION":"6.7615","RA_OF_ASC_NODE":"288.4602","ARG_OF_PERICENTER":"162.9293","MEAN_ANOMALY":"250.8591","EPHEMERIS_TYPE":"0","CLASSIFICATION_TYPE":"U","NORAD_CAT_ID":"17872","ELEMENT_SET_NO":"999","REV_AT_EPOCH":"10602","BSTAR":"0.00000000000000","MEAN_MOTION_DOT":"0.00000044","MEAN_MOTION_DDOT":"0.0000000000000","SEMIMAJOR_AXIS":"42153.358","PERIOD":"1435.516","APOAPSIS":"35852.697","PERIAPSIS":"35697.749","OBJECT_TYPE":"ROCKET BODY","RCS_SIZE":"LARGE","COUNTRY_CODE":"CIS","LAUNCH_DATE":"1976-09-11","SITE":"TTMTR","DECAY_DATE":null,"FILE":"3684614","GP_ID":"219758203","TLE_LINE0":"0 SL-12 R\/B(2)","TLE_LINE1":"1 17872U 76092F   22342.56430103  .00000044  00000-0  00000-0 0  9992","TLE_LINE2":"2 17872   6.7615 288.4602 0018379 162.9293 250.8591  1.00312371106029"},{"CCSDS_OMM_VERS":"2.0","COMMENT":"GENERATED VIA SPACE-TRACK.ORG API","CREATION_DATE":"2022-12-08T18:21:51","ORIGINATOR":"18 SPCS","OBJECT_NAME":"AGILA 1 (PALAPA B2P)","OBJECT_ID":"1987-029A","CENTER_NAME":"EARTH","REF_FRAME":"TEME","TIME_SYSTEM":"UTC","MEAN_ELEMENT_THEORY":"SGP4","EPOCH":"2022-12-08T05:43:38.653248","MEAN_MOTION":"0.99908803","ECCENTRICITY":"0.00038580","INCLINATION":"14.8758","RA_OF_ASC_NODE":"358.0772","ARG_OF_PERICENTER":"65.3455","MEAN_ANOMALY":"317.8659","EPHEMERIS_TYPE":"0","CLASSIFICATION_TYPE":"U","NORAD_CAT_ID":"17706","ELEMENT_SET_NO":"999","REV_AT_EPOCH":"2967","BSTAR":"0.00000000000000","MEAN_MOTION_DOT":"0.00000097","MEAN_MOTION_DDOT":"0.0000000000000","SEMIMAJOR_AXIS":"42266.797","PERIOD":"1441.314","APOAPSIS":"35904.968","PERIAPSIS":"35872.355","OBJECT_TYPE":"PAYLOAD","RCS_SIZE":"LARGE","COUNTRY_CODE":"RP","LAUNCH_DATE":"1987-03-20","SITE":"AFETR","DECAY_DATE":null,"FILE":"3684614","GP_ID":"219758699","TLE_LINE0":"0 AGILA 1 (PALAPA B2P)","TLE_LINE1":"1 17706U 87029A   22342.23864182  .00000097  00000-0  00000-0 0  9990","TLE_LINE2":"2 17706  14.8758 358.0772 0003858  65.3455 317.8659  0.99908803 29679"},{"CCSDS_OMM_VERS":"2.0","COMMENT":"GENERATED VIA SPACE-TRACK.ORG API","CREATION_DATE":"2022-12-08T18:21:51","ORIGINATOR":"18 SPCS","OBJECT_NAME":"SL-12 R\/B(2)","OBJECT_ID":"1987-028D","CENTER_NAME":"EARTH","REF_FRAME":"TEME","TIME_SYSTEM":"UTC","MEAN_ELEMENT_THEORY":"SGP4","EPOCH":"2022-12-08T09:52:44.820768","MEAN_MOTION":"0.99870999","ECCENTRICITY":"0.00276090","INCLINATION":"13.1980","RA_OF_ASC_NODE":"331.0351","ARG_OF_PERICENTER":"87.9436","MEAN_ANOMALY":"106.2139","EPHEMERIS_TYPE":"0","CLASSIFICATION_TYPE":"U","NORAD_CAT_ID":"17705","ELEMENT_SET_NO":"999","REV_AT_EPOCH":"13161","BSTAR":"0.00000000000000","MEAN_MOTION_DOT":"-0.00000268","MEAN_MOTION_DDOT":"0.0000000000000","SEMIMAJOR_AXIS":"42277.462","PERIOD":"1441.860","APOAPSIS":"36016.051","PERIAPSIS":"35782.604","OBJECT_TYPE":"ROCKET BODY","RCS_SIZE":"LARGE","COUNTRY_CODE":"CIS","LAUNCH_DATE":"1987-03-19","SITE":"TTMTR","DECAY_DATE":null,"FILE":"3684614","GP_ID":"219757447","TLE_LINE0":"0 SL-12 R\/B(2)","TLE_LINE1":"1 17705U 87028D   22342.41162987 -.00000268  00000-0  00000-0 0  9993","TLE_LINE2":"2 17705  13.1980 331.0351 0027609  87.9436 106.2139  0.99870999131615"},{"CCSDS_OMM_VERS":"2.0","COMMENT":"GENERATED VIA SPACE-TRACK.ORG API","CREATION_DATE":"2022-12-08T18:21:51","ORIGINATOR":"18 SPCS","OBJECT_NAME":"GOES 7","OBJECT_ID":"1987-022A","CENTER_NAME":"EARTH","REF_FRAME":"TEME","TIME_SYSTEM":"UTC","MEAN_ELEMENT_THEORY":"SGP4","EPOCH":"2022-12-08T04:57:42.653952","MEAN_MOTION":"0.99904959","ECCENTRICITY":"0.00037580","INCLINATION":"14.0943","RA_OF_ASC_NODE":"347.1382","ARG_OF_PERICENTER":"62.7985","MEAN_ANOMALY":"114.5857","EPHEMERIS_TYPE":"0","CLASSIFICATION_TYPE":"U","NORAD_CAT_ID":"17561","ELEMENT_SET_NO":"999","REV_AT_EPOCH":"11410","BSTAR":"0.00000000000000","MEAN_MOTION_DOT":"0.00000007","MEAN_MOTION_DDOT":"0.0000000000000","SEMIMAJOR_AXIS":"42267.881","PERIOD":"1441.370","APOAPSIS":"35905.630","PERIAPSIS":"35873.862","OBJECT_TYPE":"PAYLOAD","RCS_SIZE":"LARGE","COUNTRY_CODE":"US","LAUNCH_DATE":"1987-02-26","SITE":"AFETR","DECAY_DATE":null,"FILE":"3684614","GP_ID":"219758436","TLE_LINE0":"0 GOES 7","TLE_LINE1":"1 17561U 87022A   22342.20674368  .00000007  00000-0  00000-0 0  9995","TLE_LINE2":"2 17561  14.0943 347.1382 0003758  62.7985 114.5857  0.99904959114103"},{"CCSDS_OMM_VERS":"2.0","COMMENT":"GENERATED VIA SPACE-TRACK.ORG API","CREATION_DATE":"2022-12-08T18:21:51","ORIGINATOR":"18 SPCS","OBJECT_NAME":"SL-12 R\/B(2)","OBJECT_ID":"1986-090D","CENTER_NAME":"EARTH","REF_FRAME":"TEME","TIME_SYSTEM":"UTC","MEAN_ELEMENT_THEORY":"SGP4","EPOCH":"2022-12-08T11:53:22.680096","MEAN_MOTION":"1.00377690","ECCENTRICITY":"0.00119020","INCLINATION":"12.3241","RA_OF_ASC_NODE":"331.9412","ARG_OF_PERICENTER":"146.5450","MEAN_ANOMALY":"213.5112","EPHEMERIS_TYPE":"0","CLASSIFICATION_TYPE":"U","NORAD_CAT_ID":"17125","ELEMENT_SET_NO":"999","REV_AT_EPOCH":"13196","BSTAR":"0.00000000000000","MEAN_MOTION_DOT":"-0.00000133","MEAN_MOTION_DDOT":"0.0000000000000","SEMIMAJOR_AXIS":"42135.069","PERIOD":"1434.582","APOAPSIS":"35807.083","PERIAPSIS":"35706.785","OBJECT_TYPE":"ROCKET BODY","RCS_SIZE":"LARGE","COUNTRY_CODE":"CIS","LAUNCH_DATE":"1986-11-18","SITE":"TTMTR","DECAY_DATE":null,"FILE":"3684614","GP_ID":"219757433","TLE_LINE0":"0 SL-12 R\/B(2)","TLE_LINE1":"1 17125U 86090D   22342.49540139 -.00000133  00000-0  00000-0 0  9995","TLE_LINE2":"2 17125  12.3241 331.9412 0011902 146.5450 213.5112  1.00377690131960"},{"CCSDS_OMM_VERS":"2.0","COMMENT":"GENERATED VIA SPACE-TRACK.ORG API","CREATION_DATE":"2022-12-08T18:21:51","ORIGINATOR":"18 SPCS","OBJECT_NAME":"GORIZONT 12","OBJECT_ID":"1986-044A","CENTER_NAME":"EARTH","REF_FRAME":"TEME","TIME_SYSTEM":"UTC","MEAN_ELEMENT_THEORY":"SGP4","EPOCH":"2022-12-08T01:48:42.806880","MEAN_MOTION":"1.00231594","ECCENTRICITY":"0.00016930","INCLINATION":"12.1066","RA_OF_ASC_NODE":"330.3021","ARG_OF_PERICENTER":"242.6805","MEAN_ANOMALY":"296.8661","EPHEMERIS_TYPE":"0","CLASSIFICATION_TYPE":"U","NORAD_CAT_ID":"16769","ELEMENT_SET_NO":"999","REV_AT_EPOCH":"13435","BSTAR":"0.00000000000000","MEAN_MOTION_DOT":"0.00000122","MEAN_MOTION_DDOT":"0.0000000000000","SEMIMAJOR_AXIS":"42176.003","PERIOD":"1436.673","APOAPSIS":"35805.008","PERIAPSIS":"35790.727","OBJECT_TYPE":"PAYLOAD","RCS_SIZE":"LARGE","COUNTRY_CODE":"CIS","LAUNCH_DATE":"1986-06-10","SITE":"TTMTR","DECAY_DATE":null,"FILE":"3684614","GP_ID":"219756924","TLE_LINE0":"0 GORIZONT 12","TLE_LINE1":"1 16769U 86044A   22342.07549545  .00000122  00000-0  00000-0 0  9998","TLE_LINE2":"2 16769  12.1066 330.3021 0001693 242.6805 296.8661  1.00231594134354"}]